[{"OBJECT_NAME":"STARLINK-4083","OBJECT_ID":"2022-062C","EPOCH":"2026-03-09T07:24:15.607872","MEAN_MOTION":15.08832291,"ECCENTRICITY":0.00012736,"INCLINATION":53.2185,"RA_OF_ASC_NODE":35.8295,"ARG_OF_PERICENTER":96.9279,"MEAN_ANOMALY":263.1858,"EPHEMERIS_TYPE":0,"CLASSIFICATION_TYPE":"U","NORAD_CAT_ID":52832,"ELEMENT_SET_NO":999,"REV_AT_EPOCH":20572,"BSTAR":-8.4193902e-5,"MEAN_MOTION_DOT":-1.627e-5,"MEAN_MOTION_DDOT":0},{"OBJECT_NAME":"DISKSAT A","OBJECT_ID":"2025-305D","EPOCH":"2026-03-09T13:08:58.223040","MEAN_MOTION":15.07741062,"ECCENTRICITY":0.0004082,"INCLINATION":45.0023,"RA_OF_ASC_NODE":251.6019,"ARG_OF_PERICENTER":318.1929,"MEAN_ANOMALY":41.8634,"EPHEMERIS_TYPE":0,"CLASSIFICATION_TYPE":"U","NORAD_CAT_ID":67222,"ELEMENT_SET_NO":999,"REV_AT_EPOCH":1226,"BSTAR":0.00090452,"MEAN_MOTION_DOT":0.00013824,"MEAN_MOTION_DDOT":0}]
